SL-16 R/B               
1 25407U 98045B   26072.31673297  .00000299  00000+0  17501-3 0  9995
2 25407  71.0121 173.9471 0006972   2.5500 357.5658 14.16192002427615
ISS (ZARYA)             
1 25544U 98067A   26072.38526547  .00010392  00000+0  19895-3 0  9996
2 25544  51.6324  54.0842 0007909 188.2233 171.8627 15.48625615556908
CZ-4B R/B               
1 25732U 99025C   26072.56597626  .00000059  00000+0  49325-4 0  9997
2 25732  98.6619 116.7556 0036537 335.3507 189.7259 14.18266162388716
OKEAN-O                 
1 25860U 99039A   26072.16682269  .00000807  00000+0  11270-3 0  9996
2 25860  97.9434 132.0228 0001147  70.8180 289.3156 14.80341717434904
SL-16 R/B               
1 25861U 99039B   26072.14341177  .00000681  00000+0  93182-4 0  9998
2 25861  97.9960 131.2351 0013606 243.7187 116.2628 14.81736975437379
DELTA 2 R/B             
1 25876U 99041E   26072.61851137  .00001460  00000+0  27312-3 0  9998
2 25876  51.7621 285.5874 0502464   0.0188   0.0685 14.11851195363589
HELIOS 1B               
1 25977U 99064A   26072.27855123  .00002187  00000+0  24634-3 0  9997
2 25977  98.1688 334.6271 0002410  70.5247 289.6228 14.87715338685799
TERRA                   
1 25994U 99068A   26072.63802337  .00000529  00000+0  11683-3 0  9997
2 25994  97.9586 125.9218 0002933 142.4605  18.8470 14.61019551395651
SL-16 R/B               
1 26070U 00006B   26072.33308346 -.00000193  00000+0 -73708-4 0  9991
2 26070  71.0005  90.1760 0016539 184.8331 175.2635 14.15825076349076
TITAN 4B R/B            
1 26474U 00047B   26072.47320220  .00005419  00000+0  33865-3 0  9997
2 26474  67.9902  29.8705 0038674  30.9476 329.3941 15.09604981393487
ENVISAT                 
1 27386U 02009A   26072.38743263  .00000150  00000+0  62281-4 0  9998
2 27386  98.3733  25.8968 0001324  83.1865  85.2937 14.39038451259705
IDEFIX & ARIANE 42P R/B 
1 27422U 02021B   26072.27153815  .00000328  00000+0  14132-3 0  9997
2 27422  98.5870  10.8350 0011785 171.5681 188.5702 14.31029033244539
